{
  "type": "FeatureCollection",
  "features": [
    {
      "type": "Feature",
      "properties": {
        "norad_id": 66626,
        "name": "STARLINK-35902",
        "group": "last-30-days",
        "lat": -48.366749089395086,
        "lon": 131.6910860821727,
        "alt_km": 417.32071906444617,
        "timestamp": "2025-12-12T07:43:19.258772+00:00",
        "meta_object_name": "STARLINK-35902",
        "meta_object_id": "2025-271K",
        "meta_epoch": "2025-12-11T20:00:01.999872",
        "meta_mean_motion": 15.53791851,
        "meta_eccentricity": 8.793e-05,
        "meta_inclination": 53.1596,
        "meta_ra_of_asc_node": 191.5459,
        "meta_arg_of_pericenter": 96.9522,
        "meta_mean_anomaly": 342.4633,
        "meta_ephemeris_type": 0,
        "meta_classification_type": "U",
        "meta_norad_cat_id": 66626,
        "meta_element_set_no": 999,
        "meta_rev_at_epoch": 409,
        "meta_bstar": -0.03529963,
        "meta_mean_motion_dot": -0.02055147,
        "meta_mean_motion_ddot": 0,
        "tle_line1": "1 66626U 25271K   25345.83335648 -.02055147  00000+0 -35300-1 0  9999",
        "tle_line2": "2 66626  53.1596 191.5459 0000879  96.9522 342.4633 15.53791851  4091"
      },
      "geometry": {
        "type": "Point",
        "coordinates": [
          131.6910860821727,
          -48.366749089395086
        ]
      }
    },
    {
      "type": "Feature",
      "properties": {
        "norad_id": 66627,
        "name": "STARLINK-35904",
        "group": "last-30-days",
        "lat": -47.51640778548172,
        "lon": 134.24427644832582,
        "alt_km": 417.2130709356079,
        "timestamp": "2025-12-12T07:43:19.258785+00:00",
        "meta_object_name": "STARLINK-35904",
        "meta_object_id": "2025-271L",
        "meta_epoch": "2025-12-11T20:00:01.999872",
        "meta_mean_motion": 15.53790746,
        "meta_eccentricity": 8.56e-05,
        "meta_inclination": 53.1599,
        "meta_ra_of_asc_node": 191.542,
        "meta_arg_of_pericenter": 90.1499,
        "meta_mean_anomaly": 351.1836,
        "meta_ephemeris_type": 0,
        "meta_classification_type": "U",
        "meta_norad_cat_id": 66627,
        "meta_element_set_no": 999,
        "meta_rev_at_epoch": 393,
        "meta_bstar": -0.035284775,
        "meta_mean_motion_dot": -0.02054287,
        "meta_mean_motion_ddot": 0,
        "tle_line1": "1 66627U 25271L   25345.83335648 -.02054287  00000+0 -35285-1 0  9996",
        "tle_line2": "2 66627  53.1599 191.5420 0000856  90.1499 351.1836 15.53790746  3933"
      },
      "geometry": {
        "type": "Point",
        "coordinates": [
          134.24427644832582,
          -47.51640778548172
        ]
      }
    },
    {
      "type": "Feature",
      "properties": {
        "norad_id": 66628,
        "name": "STARLINK-35862",
        "group": "last-30-days",
        "lat": -46.61002290453112,
        "lon": 136.71523144792224,
        "alt_km": 417.2954039505439,
        "timestamp": "2025-12-12T07:43:19.258797+00:00",
        "meta_object_name": "STARLINK-35862",
        "meta_object_id": "2025-271M",
        "meta_epoch": "2025-12-11T20:00:01.999872",
        "meta_mean_motion": 15.53788384,
        "meta_eccentricity": 0.00010235,
        "meta_inclination": 53.1599,
        "meta_ra_of_asc_node": 191.5381,
        "meta_arg_of_pericenter": 75.6395,
        "meta_mean_anomaly": 7.612,
        "meta_ephemeris_type": 0,
        "meta_classification_type": "U",
        "meta_norad_cat_id": 66628,
        "meta_element_set_no": 999,
        "meta_rev_at_epoch": 409,
        "meta_bstar": -0.035238886,
        "meta_mean_motion_dot": -0.02051844,
        "meta_mean_motion_ddot": 0,
        "tle_line1": "1 66628U 25271M   25345.83335648 -.02051844  00000+0 -35239-1 0  9992",
        "tle_line2": "2 66628  53.1599 191.5381 0001023  75.6395   7.6120 15.53788384  4092"
      },
      "geometry": {
        "type": "Point",
        "coordinates": [
          136.71523144792224,
          -46.61002290453112
        ]
      }
    },
    {
      "type": "Feature",
      "properties": {
        "norad_id": 66629,
        "name": "STARLINK-35956",
        "group": "last-30-days",
        "lat": -45.652533464200665,
        "lon": 139.10105918108016,
        "alt_km": 417.1526423534842,
        "timestamp": "2025-12-12T07:43:19.258808+00:00",
        "meta_object_name": "STARLINK-35956",
        "meta_object_id": "2025-271N",
        "meta_epoch": "2025-12-11T20:00:01.999872",
        "meta_mean_motion": 15.53790933,
        "meta_eccentricity": 9.421e-05,
        "meta_inclination": 53.1596,
        "meta_ra_of_asc_node": 191.5347,
        "meta_arg_of_pericenter": 87.7423,
        "meta_mean_anomaly": 357.4252,
        "meta_ephemeris_type": 0,
        "meta_classification_type": "U",
        "meta_norad_cat_id": 66629,
        "meta_element_set_no": 999,
        "meta_rev_at_epoch": 409,
        "meta_bstar": -0.03528698,
        "meta_mean_motion_dot": -0.02054465,
        "meta_mean_motion_ddot": 0,
        "tle_line1": "1 66629U 25271N   25345.83335648 -.02054465  00000+0 -35287-1 0  9998",
        "tle_line2": "2 66629  53.1596 191.5347 0000942  87.7423 357.4252 15.53790933  4092"
      },
      "geometry": {
        "type": "Point",
        "coordinates": [
          139.10105918108016,
          -45.652533464200665
        ]
      }
    },
    {
      "type": "Feature",
      "properties": {
        "norad_id": 66630,
        "name": "STARLINK-35949",
        "group": "last-30-days",
        "lat": -44.64616479005608,
        "lon": 141.40550928150233,
        "alt_km": 417.09307557985176,
        "timestamp": "2025-12-12T07:43:19.258818+00:00",
        "meta_object_name": "STARLINK-35949",
        "meta_object_id": "2025-271P",
        "meta_epoch": "2025-12-11T20:00:01.999872",
        "meta_mean_motion": 15.5379173,
        "meta_eccentricity": 8.26e-05,
        "meta_inclination": 53.1598,
        "meta_ra_of_asc_node": 191.5293,
        "meta_arg_of_pericenter": 96.0831,
        "meta_mean_anomaly": 350.9991,
        "meta_ephemeris_type": 0,
        "meta_classification_type": "U",
        "meta_norad_cat_id": 66630,
        "meta_element_set_no": 999,
        "meta_rev_at_epoch": 409,
        "meta_bstar": -0.035279036,
        "meta_mean_motion_dot": -0.02054038,
        "meta_mean_motion_ddot": 0,
        "tle_line1": "1 66630U 25271P   25345.83335648 -.02054038  00000+0 -35279-1 0  9997",
        "tle_line2": "2 66630  53.1598 191.5293 0000826  96.0831 350.9991 15.53791730  4097"
      },
      "geometry": {
        "type": "Point",
        "coordinates": [
          141.40550928150233,
          -44.64616479005608
        ]
      }
    },
    {
      "type": "Feature",
      "properties": {
        "norad_id": 66631,
        "name": "STARLINK-35965",
        "group": "last-30-days",
        "lat": -43.59548570239398,
        "lon": 143.63002153044957,
        "alt_km": 417.0730388878601,
        "timestamp": "2025-12-12T07:43:19.258828+00:00",
        "meta_object_name": "STARLINK-35965",
        "meta_object_id": "2025-271Q",
        "meta_epoch": "2025-12-11T20:00:01.999872",
        "meta_mean_motion": 15.5379043,
        "meta_eccentricity": 8.942e-05,
        "meta_inclination": 53.1598,
        "meta_ra_of_asc_node": 191.5262,
        "meta_arg_of_pericenter": 94.9371,
        "meta_mean_anomaly": 354.0633,
        "meta_ephemeris_type": 0,
        "meta_classification_type": "U",
        "meta_norad_cat_id": 66631,
        "meta_element_set_no": 999,
        "meta_rev_at_epoch": 409,
        "meta_bstar": -0.035257977,
        "meta_mean_motion_dot": -0.02052897,
        "meta_mean_motion_ddot": 0,
        "tle_line1": "1 66631U 25271Q   25345.83335648 -.02052897  00000+0 -35258-1 0  9996",
        "tle_line2": "2 66631  53.1598 191.5262 0000894  94.9371 354.0633 15.53790430  4099"
      },
      "geometry": {
        "type": "Point",
        "coordinates": [
          143.63002153044957,
          -43.59548570239398
        ]
      }
    },
    {
      "type": "Feature",
      "properties": {
        "norad_id": 66632,
        "name": "STARLINK-35973",
        "group": "last-30-days",
        "lat": -42.50434231769014,
        "lon": 145.77316088755862,
        "alt_km": 417.1061575362246,
        "timestamp": "2025-12-12T07:43:19.258840+00:00",
        "meta_object_name": "STARLINK-35973",
        "meta_object_id": "2025-271R",
        "meta_epoch": "2025-12-11T20:00:01.999872",
        "meta_mean_motion": 15.53791045,
        "meta_eccentricity": 0.00010689,
        "meta_inclination": 53.1596,
        "meta_ra_of_asc_node": 191.5225,
        "meta_arg_of_pericenter": 75.223,
        "meta_mean_anomaly": 15.6953,
        "meta_ephemeris_type": 0,
        "meta_classification_type": "U",
        "meta_norad_cat_id": 66632,
        "meta_element_set_no": 999,
        "meta_rev_at_epoch": 403,
        "meta_bstar": -0.035343268,
        "meta_mean_motion_dot": -0.02057471,
        "meta_mean_motion_ddot": 0,
        "tle_line1": "1 66632U 25271R   25345.83335648 -.02057471  00000+0 -35343-1 0  9995",
        "tle_line2": "2 66632  53.1596 191.5225 0001068  75.2230  15.6953 15.53791045  4039"
      },
      "geometry": {
        "type": "Point",
        "coordinates": [
          145.77316088755862,
          -42.50434231769014
        ]
      }
    }
  ]
}